COMMENT,ORIGINATOR,NORAD_CAT_ID,OBJECT_NAME,OBJECT_TYPE,CLASSIFICATION_TYPE,INTLDES,EPOCH,EPOCH_MICROSECONDS,MEAN_MOTION,ECCENTRICITY,INCLINATION,RA_OF_ASC_NODE,ARG_OF_PERICENTER,MEAN_ANOMALY,EPHEMERIS_TYPE,ELEMENT_SET_NO,REV_AT_EPOCH,BSTAR,MEAN_MOTION_DOT,MEAN_MOTION_DDOT,FILE,TLE_LINE0,TLE_LINE1,TLE_LINE2,OBJECT_ID,OBJECT_NUMBER,SEMIMAJOR_AXIS,PERIOD,APOGEE,PERIGEE,DECAYED,date
GENERATED VIA SPACETRACK.ORG API,18 SPCS,48894,SPACEBEE-107,PAYLOAD,U,21059R,2023/2/23 8:59,220704,15.24226221,0.0008206,97.5815,189.7079,308.5848,51.4654,0,999,9203,0.0013953,0.00034106,0,3828819,0 SPACEBEE-107,1 48894U 21059R   23054.37493311  .00034106  00000-0  13953-2 0  9992,2 48894  97.5815 189.7079 0008206 308.5848  51.4654 15.24226221 92039,2021-059R,48894,6871.247,94.474,498.75,487.473,0,2023/4/26
GENERATED VIA SPACETRACK.ORG API,18 SPCS,48894,SPACEBEE-107,PAYLOAD,U,21059R,2023/2/23 20:01,445600,15.24250598,0.000817,97.5816,190.1727,306.9872,53.0617,0,999,9210,0.0011965,0.00029238,0,3830532,0 SPACEBEE-107,1 48894U 21059R   23054.83447275  .00029238  00000-0  11965-2 0  9992,2 48894  97.5816 190.1727 0008170 306.9872  53.0617 15.24250598 92104,2021-059R,48894,6871.174,94.473,498.652,487.425,0,2023/4/27
GENERATED VIA SPACETRACK.ORG API,18 SPCS,48894,SPACEBEE-107,PAYLOAD,U,21059R,2023/2/24 7:03,765024,15.24284117,0.0008183,97.5815,190.6375,305.3567,54.6904,0,999,9217,0.0013653,0.00033425,0,3832388,0 SPACEBEE-107,1 48894U 21059R   23055.29400191  .00033425  00000-0  13653-2 0  9998,2 48894  97.5815 190.6375 0008183 305.3567  54.6904 15.24284117 92172,2021-059R,48894,6871.073,94.471,498.561,487.315,0,2023/4/28
GENERATED VIA SPACETRACK.ORG API,18 SPCS,48894,SPACEBEE-107,PAYLOAD,U,21059R,2023/2/24 7:03,765024,15.24284117,0.0008183,97.5815,190.6375,305.3567,54.6904,0,999,9217,0.0013653,0.00033425,0,3832867,0 SPACEBEE-107,1 48894U 21059R   23055.29400191  .00033425  00000-0  13653-2 0  9998,2 48894  97.5815 190.6375 0008183 305.3567  54.6904 15.24284117 92172,2021-059R,48894,6871.073,94.471,498.561,487.315,0,2023/4/29
GENERATED VIA SPACETRACK.ORG API,18 SPCS,48894,SPACEBEE-107,PAYLOAD,U,21059R,2023/2/24 19:39,177408,15.24310381,0.0008206,97.5813,191.1687,303.1895,56.8554,0,999,9225,0.0010007,0.00024469,0,3835059,0 SPACEBEE-107,1 48894U 21059R   23055.81916872  .00024469  00000-0  10007-2 0  9992,2 48894  97.5813 191.1687 0008206 303.1895  56.8554 15.24310381 92255,2021-059R,48894,6870.994,94.469,498.497,487.221,0,2023/4/30
GENERATED VIA SPACETRACK.ORG API,18 SPCS,48894,SPACEBEE-107,PAYLOAD,U,21059R,2023/2/24 22:48,642912,15.24317067,0.0008226,97.5813,191.3017,302.7017,57.3427,0,999,9227,0.00097959,0.00023955,0,3835556,0 SPACEBEE-107,1 48894U 21059R   23055.95045883  .00023955  00000-0  97959-3 0  9993,2 48894  97.5813 191.3017 0008226 302.7017  57.3427 15.24317067 92272,2021-059R,48894,6870.974,94.469,498.491,487.187,0,
GENERATED VIA SPACETRACK.ORG API,18 SPCS,48894,SPACEBEE-107,PAYLOAD,U,21059R,2023/2/25 14:33,297376,15.24351899,0.0008297,97.581,191.9656,300.4235,59.6182,0,999,9237,0.0010943,0.00026807,0,3837605,0 SPACEBEE-107,1 48894U 21059R   23056.60690159  .00026807  00000-0  10943-2 0  9994,2 48894  97.5810 191.9656 0008297 300.4235  59.6182 15.24351899 92374,2021-059R,48894,6870.869,94.466,498.435,487.033,0,
GENERATED VIA SPACETRACK.ORG API,18 SPCS,48894,SPACEBEE-107,PAYLOAD,U,21059R,2023/2/25 20:52,594208,15.24369478,0.0008306,97.581,192.2312,299.452,60.5888,0,999,9241,0.001255,0.00030787,0,3839003,0 SPACEBEE-107,1 48894U 21059R   23056.86947447  .00030787  00000-0  12550-2 0  9995,2 48894  97.5810 192.2312 0008306 299.4520  60.5888 15.24369478 92413,2021-059R,48894,6870.816,94.465,498.388,486.975,0,
GENERATED VIA SPACETRACK.ORG API,18 SPCS,48894,SPACEBEE-107,PAYLOAD,U,21059R,2023/2/26 3:10,682816,15.24383663,0.000835,97.581,192.4967,299.1751,60.865,0,999,9245,0.0013158,0.00032303,0,3839363,0 SPACEBEE-107,1 48894U 21059R   23057.13204494  .00032303  00000-0  13158-2 0  9995,2 48894  97.5810 192.4967 0008350 299.1751  60.8650 15.24383663 92459,2021-059R,48894,6870.774,94.464,498.376,486.902,0,
GENERATED VIA SPACETRACK.ORG API,18 SPCS,48894,SPACEBEE-107,PAYLOAD,U,21059R,2023/2/26 14:11,569568,15.24417065,0.0008363,97.5809,192.9616,297.1351,62.9033,0,999,9252,0.0014235,0.00035001,0,3841853,0 SPACEBEE-107,1 48894U 21059R   23057.59153437  .00035001  00000-0  14235-2 0  9990,2 48894  97.5809 192.9616 0008363 297.1351  62.9033 15.24417065 92521,2021-059R,48894,6870.673,94.462,498.284,486.792,0,
GENERATED VIA SPACETRACK.ORG API,18 SPCS,48894,SPACEBEE-107,PAYLOAD,U,21059R,2023/2/27 7:31,507616,15.24473776,0.0008297,97.5808,193.6926,294.6316,65.4057,0,999,9263,0.0017682,0.00043617,0,3845206,0 SPACEBEE-107,1 48894U 21059R   23058.31357069  .00043617  00000-0  17682-2 0  9999,2 48894  97.5808 193.6926 0008297 294.6316  65.4057 15.24473776 92638,2021-059R,48894,6870.503,94.459,498.068,486.668,0,
GENERATED VIA SPACETRACK.ORG API,18 SPCS,48894,SPACEBEE-107,PAYLOAD,U,21059R,2023/2/27 7:31,507616,15.24473776,0.0008297,97.5808,193.6926,294.6316,65.4057,0,999,9263,0.0017682,0.00043617,0,3846396,0 SPACEBEE-107,1 48894U 21059R   23058.31357069  .00043617  00000-0  17682-2 0  9999,2 48894  97.5808 193.6926 0008297 294.6316  65.4057 15.24473776 92638,2021-059R,48894,6870.503,94.459,498.068,486.668,0,
GENERATED VIA SPACETRACK.ORG API,18 SPCS,48894,SPACEBEE-107,PAYLOAD,U,21059R,2023/2/28 2:25,410080,15.24554266,0.0008246,97.5806,194.4893,291.5341,68.5016,0,999,9275,0.0019802,0.00049007,0,3846997,0 SPACEBEE-107,1 48894U 21059R   23059.10120845  .00049007  00000-0  19802-2 0  9992,2 48894  97.5806 194.4893 0008246 291.5341  68.5016 15.24554266 92752,2021-059R,48894,6870.261,94.454,497.791,486.461,0,
GENERATED VIA SPACETRACK.ORG API,18 SPCS,48894,SPACEBEE-107,PAYLOAD,U,21059R,2023/2/28 8:43,660448,15.24577388,0.0008186,97.5811,194.7553,290.6937,69.3422,0,999,9279,0.0018184,0.00045003,0,3847542,0 SPACEBEE-107,1 48894U 21059R   23059.36374607  .00045003  00000-0  18184-2 0  9991,2 48894  97.5811 194.7553 0008186 290.6937  69.3422 15.24577388 92792,2021-059R,48894,6870.192,94.452,497.681,486.433,0,
GENERATED VIA SPACETRACK.ORG API,18 SPCS,48894,SPACEBEE-107,PAYLOAD,U,21059R,2023/2/28 21:19,228928,15.24610251,0.0008177,97.581,195.2866,288.7582,71.2768,0,999,9287,0.0011932,0.00029472,0,3847656,0 SPACEBEE-107,1 48894U 21059R   23059.88881052  .00029472  00000-0  11932-2 0  9991,2 48894  97.5810 195.2866 0008177 288.7582  71.2768 15.24610251 92879,2021-059R,48894,6870.093,94.45,497.576,486.34,0,
GENERATED VIA SPACETRACK.ORG API,18 SPCS,48894,SPACEBEE-107,PAYLOAD,U,21059R,2023/2/28 22:54,871744,15.24613589,0.0008141,97.5809,195.3531,288.5352,71.5,0,999,9288,0.001164,0.00028749,0,3848061,0 SPACEBEE-107,1 48894U 21059R   23059.95444296  .00028749  00000-0  11640-2 0  9996,2 48894  97.5809 195.3531 0008141 288.5352  71.5000 15.24613589 92881,2021-059R,48894,6870.083,94.45,497.541,486.355,0,
GENERATED VIA SPACETRACK.ORG API,18 SPCS,48894,SPACEBEE-107,PAYLOAD,U,21059R,2023/3/1 8:21,196416,15.2464754,0.0008167,97.5808,195.7516,287.1379,72.8964,0,999,9294,0.001475,0.00036525,0,3848347,0 SPACEBEE-107,1 48894U 21059R   23060.34823144  .00036525  00000-0  14750-2 0  9990,2 48894  97.5808 195.7516 0008167 287.1379  72.8964 15.24647540 92943,2021-059R,48894,6869.981,94.448,497.457,486.235,0,
GENERATED VIA SPACETRACK.ORG API,18 SPCS,48894,SPACEBEE-107,PAYLOAD,U,21059R,2023/3/1 20:57,769056,15.24678299,0.0008215,97.5809,196.283,285.1965,74.8364,0,999,9302,0.0011949,0.00029575,0,3848834,0 SPACEBEE-107,1 48894U 21059R   23060.87327279  .00029575  00000-0  11949-2 0  9990,2 48894  97.5809 196.2830 0008215 285.1965  74.8364 15.24678299 93023,2021-059R,48894,6869.889,94.446,497.397,486.11,0,
GENERATED VIA SPACETRACK.ORG API,18 SPCS,48894,SPACEBEE-107,PAYLOAD,U,21059R,2023/3/2 19:00,453152,15.24744921,0.0008253,97.5812,197.2132,282.1856,77.8457,0,999,9316,0.0014184,0.00035217,0,3849334,0 SPACEBEE-107,1 48894U 21059R   23061.79206543  .00035217  00000-0  14184-2 0  9996,2 48894  97.5812 197.2132 0008253 282.1856  77.8457 15.24744921 93168,2021-059R,48894,6869.688,94.442,497.223,485.884,0,
GENERATED VIA SPACETRACK.ORG API,18 SPCS,48894,SPACEBEE-107,PAYLOAD,U,21059R,2023/3/2 19:00,453152,15.24744921,0.0008253,97.5812,197.2132,282.1856,77.8457,0,999,9316,0.0014184,0.00035217,0,3849487,0 SPACEBEE-107,1 48894U 21059R   23061.79206543  .00035217  00000-0  14184-2 0  9996,2 48894  97.5812 197.2132 0008253 282.1856  77.8457 15.24744921 93168,2021-059R,48894,6869.688,94.442,497.223,485.884,0,
GENERATED VIA SPACETRACK.ORG API,18 SPCS,48894,SPACEBEE-107,PAYLOAD,U,21059R,2023/3/3 7:36,808256,15.24796228,0.0008273,97.5812,197.7451,280.4275,79.6029,0,999,9324,0.0018745,0.00046709,0,3850090,0 SPACEBEE-107,1 48894U 21059R   23062.31706954  .00046709  00000-0  18745-2 0  9991,2 48894  97.5812 197.7451 0008273 280.4275  79.6029 15.24796228 93246,2021-059R,48894,6869.534,94.439,497.083,485.716,0,
GENERATED VIA SPACETRACK.ORG API,18 SPCS,48894,SPACEBEE-107,PAYLOAD,U,21059R,2023/3/3 7:36,808256,15.24796228,0.0008273,97.5812,197.7451,280.4275,79.6029,0,999,9324,0.0018745,0.00046709,0,3850163,0 SPACEBEE-107,1 48894U 21059R   23062.31706954  .00046709  00000-0  18745-2 0  9991,2 48894  97.5812 197.7451 0008273 280.4275  79.6029 15.24796228 93246,2021-059R,48894,6869.534,94.439,497.083,485.716,0,
GENERATED VIA SPACETRACK.ORG API,18 SPCS,48894,SPACEBEE-107,PAYLOAD,U,21059R,2023/3/3 21:47,516576,15.24849275,0.0008235,97.581,198.3421,278.6339,81.3965,0,999,9333,0.0017908,0.00044678,0,3850400,0 SPACEBEE-107,1 48894U 21059R   23062.90767959  .00044678  00000-0  17908-2 0  9991,2 48894  97.5810 198.3421 0008235 278.6339  81.3965 15.24849275 93336,2021-059R,48894,6869.375,94.436,496.897,485.583,0,
